STARLINK-1722
1 26361C 20062AP  21325.15489436  .00004295  00000-0  28774-3 0  3257
2 26361  53.0522 177.5435 0001965  82.0145 222.2513 15.06398252    11
